publisherName,address,city,country,phone,web
"McKenzie, Gibson and Labadie",3935 Mallory Pass,Asamboka,Indonesia,+62 (827) 172-6536,http://gmpg.org
"Feeney, Jaskolski and Cartwright",87935 Logan Parkway,El Rancho,Honduras,+504 (133) 401-4216,https://rambler.ru
Wolff Inc,16567 Coleman Crossing,Tierp,Sweden,+46 (115) 729-3998,http://addthis.com
Jerde-Walter,30 Anniversary Drive,Cisantri,Indonesia,+62 (161) 693-5183,https://unc.edu
Orn and Sons,68 Division Street,Utrecht (stad),Netherlands,+31 (701) 389-3411,http://php.net
Konopelski-Hane,34252 Bonner Pass,Desa Wetan Ciakar,Indonesia,+62 (990) 718-5000,https://examiner.com
Abshire Inc,7427 Maryland Crossing,Buguruslan,Russia,+7 (485) 565-9069,http://telegraph.co.uk
Nitzsche-Walker,762 Mockingbird Road,Curpahuasi,Peru,+51 (773) 986-2916,http://statcounter.com
O'Reilly Inc,60 Raven Trail,Mỏ Cày,Vietnam,+84 (926) 607-3143,http://mail.ru
Schoen and Sons,607 Forest Dale Crossing,San Marcos,Colombia,+57 (117) 943-8574,http://vk.com
Jacobson and Sons,3968 Cascade Hill,Jiuxi,China,+86 (787) 737-1524,https://icio.us
Tremblay-Champlin,55 Algoma Lane,Tutut,Indonesia,+62 (755) 246-5808,http://tinypic.com
Abernathy Group,1 Delladonna Court,Magomeni,Tanzania,+255 (817) 672-4750,https://linkedin.com
Orn-O'Connell,349 Jenna Place,Hobo,Colombia,+57 (759) 408-6709,http://nhs.uk
Turner-Schiller,3 Shopko Drive,Pocpo,Bolivia,+591 (268) 999-2618,https://facebook.com
Hackett-Bosco,7 Tomscot Alley,Qiqin,China,+86 (865) 833-8400,http://cbslocal.com
Lakin and Sons,7 Moland Trail,Tirana,Albania,+355 (461) 493-4218,http://goodreads.com
Schamberger-Nienow,320 Kim Pass,Srostki,Russia,+7 (913) 227-7135,http://sina.com.cn
Wolf Inc,66607 Hovde Circle,Rothesay Bay,New Zealand,+64 (902) 922-2587,http://1688.com
"Harris, Wisoky and Flatley",315 Dexter Alley,Stockholm,Sweden,+46 (977) 289-6640,http://spotify.com
"Schulist, Emard and Hermann",6476 Mesta Junction,Lyon,France,+33 (750) 721-1726,https://reference.com
"Marquardt, Swaniawski and McCullough",1740 Eggendart Alley,Ayia Napa,Cyprus,+357 (389) 209-0046,https://dell.com
"Connelly, Okuneva and Spinka",65617 Upham Road,Trzcińsko Zdrój,Poland,+48 (223) 584-3900,https://walmart.com
Nienow Group,369 Di Loreto Court,Buesaco,Colombia,+57 (887) 213-7359,https://hhs.gov
McLaughlin and Sons,038 Brentwood Junction,Leipsoí,Greece,+30 (183) 354-4315,http://narod.ru
Glover-Dickinson,28 Fallview Street,Francisco Villa,Mexico,+52 (360) 927-8969,https://usnews.com
"Haag, Trantow and Kiehn",14 Pennsylvania Way,Jiangyan,China,+86 (921) 712-8256,http://theglobeandmail.com
Lemke-Schmitt,57165 Old Shore Place,Garibaldi,Brazil,+55 (814) 954-5547,https://phoca.cz
McGlynn-Beatty,325 Surrey Center,Muting,Indonesia,+62 (727) 247-9673,http://cisco.com
Bechtelar Inc,97274 Mccormick Court,Levandeira,Portugal,+351 (147) 736-4246,http://123-reg.co.uk
"Armstrong, Collins and Crist",11 Oak Valley Plaza,Panji,Indonesia,+62 (535) 934-9843,https://china.com.cn
Beahan Inc,745 Armistice Alley,Changshengqiao,China,+86 (467) 271-7925,https://paypal.com
Mraz-Grady,780 Dixon Lane,Évreux,France,+33 (551) 780-2419,https://google.com.au
Collins-Monahan,931 Annamark Avenue,Fuxi,China,+86 (848) 503-6762,https://berkeley.edu
Morar LLC,1680 Bartelt Street,Tahilt,Mongolia,+976 (684) 108-3202,http://ocn.ne.jp
Ward-Davis,7970 Kropf Drive,Shanxi,China,+86 (330) 303-3741,https://jugem.jp
Zboncak and Sons,2 Moland Pass,Crépy-en-Valois,France,+33 (603) 858-5479,http://biglobe.ne.jp
Schmitt-Torphy,50422 Cherokee Road,Bonsari,Indonesia,+62 (997) 572-9866,http://bloomberg.com
"Waters, O'Kon and Kassulke",0669 Nancy Place,Pasirhaur,Indonesia,+62 (847) 647-4963,http://topsy.com
"Littel, Nader and Turner",6229 Bartelt Road,Venezuela,Cuba,+53 (356) 133-1456,http://mail.ru
"Walsh, Torphy and Pouros",968 Bayside Junction,San Ramón de la Nueva Orán,Argentina,+54 (434) 758-7512,http://csmonitor.com
Koelpin-Barton,3 Buhler Pass,Az Zawr,Kuwait,+965 (685) 963-0663,https://geocities.jp
Dach-Smitham,77320 Cambridge Lane,Fianarantsoa,Madagascar,+261 (793) 822-2185,http://alibaba.com
Russel Group,41048 Mccormick Way,Fond du Sac,Mauritius,+230 (344) 797-0434,https://bloomberg.com
Altenwerth-Jacobson,57992 Clove Point,Gubskaya,Russia,+7 (540) 388-4125,https://cdbaby.com
Hoeger-Auer,84 Debra Park,Anderstorp,Sweden,+46 (542) 451-8320,http://digg.com
"Howell, Bayer and Connelly",9692 Marquette Crossing,Dos Quebradas,Colombia,+57 (448) 551-1897,https://discovery.com
Johnston-Roberts,8 Leroy Lane,Chenārān,Iran,+98 (634) 469-7834,https://mysql.com
Pfeffer-Prohaska,55 Commercial Avenue,Cartí Suitupo,Panama,+507 (610) 378-6578,http://hao123.com
"Collier, Yundt and Bins",30 Grayhawk Drive,Quezon,Philippines,+63 (172) 129-6601,https://craigslist.org
Lubowitz-Goldner,33142 Nobel Avenue,Barrosas,Portugal,+351 (373) 502-1228,https://hatena.ne.jp
Runolfsson-McDermott,50 Esker Trail,Shuangyang,China,+86 (420) 554-1183,http://spotify.com
Sanford LLC,0737 Muir Street,Delft,Netherlands,+31 (521) 597-2531,http://army.mil
"Carroll, Lemke and Bosco",58827 Superior Parkway,Penisihan,Indonesia,+62 (141) 436-7449,http://typepad.com
"Haley, Shanahan and Carter",409 Farmco Street,Guanzhou,China,+86 (160) 651-1358,https://virginia.edu
Ernser-Jacobs,467 Old Gate Court,Il’skiy,Russia,+7 (418) 809-2661,http://seesaa.net
Wunsch and Sons,8 Mariners Cove Point,Guniushan,China,+86 (425) 264-3369,https://liveinternet.ru
Bartoletti LLC,08049 Morningstar Point,Tuopu,China,+86 (261) 954-9711,https://bbc.co.uk
Wolf-Fahey,947 Ridge Oak Hill,Sasnovy Bor,Belarus,+375 (362) 728-8086,http://cisco.com
Wisozk and Sons,01 Knutson Circle,Nioki,Democratic Republic of the Congo,+242 (414) 854-7328,https://1und1.de
Hoeger-Bauch,48 Kingsford Plaza,San Fernando,Honduras,+504 (338) 461-5209,http://pagesperso-orange.fr
Stark-Moore,80483 Monterey Park,Radocza,Poland,+48 (718) 132-0153,http://ted.com
Wiza LLC,710 Meadow Ridge Road,Bartsrashen,Armenia,+374 (593) 250-6073,http://msn.com
"Waelchi, Ruecker and Johnston",29611 Crowley Junction,Pont Cassé,Dominica,+1 (531) 908-5287,https://moonfruit.com
"Mitchell, Stokes and Kuhlman",67 Elka Way,Ciego de Ávila,Cuba,+53 (988) 423-3749,http://yandex.ru
"Bosco, Conroy and Lowe",0953 Columbus Plaza,Capitão Poço,Brazil,+55 (876) 855-1199,http://homestead.com
McLaughlin Group,8318 Basil Place,Banjar Banyuning Barat,Indonesia,+62 (563) 492-8908,https://purevolume.com
Schowalter and Sons,78 Longview Point,Oxelösund,Sweden,+46 (492) 792-0366,https://wordpress.com
"Orn, Weber and Christiansen",29 Delaware Terrace,Wilga,Poland,+48 (421) 942-6405,https://sohu.com
Green-O'Reilly,930 Farmco Junction,Saint-Claude,France,+33 (926) 646-1710,http://irs.gov
"Ortiz, Reichert and Bechtelar",6783 Twin Pines Circle,Centro Habana,Cuba,+53 (928) 249-1592,http://berkeley.edu
"Johnston, Lueilwitz and Pollich",09 Utah Junction,Dębno,Poland,+48 (647) 308-3358,http://gravatar.com
McCullough-Crona,8 Iowa Way,Zhaoguli,China,+86 (862) 188-7738,http://gov.uk
Kulas-Lakin,8236 Reindahl Trail,Teberda,Russia,+7 (842) 662-8956,http://noaa.gov
Gleichner-Stamm,64 Bartelt Road,Dagar,China,+86 (515) 646-2874,http://dagondesign.com
Mueller and Sons,6 Sunbrook Center,San Carlos,Bolivia,+591 (693) 856-8125,http://telegraph.co.uk
Crona LLC,876 Nevada Terrace,Zaragoza,Mexico,+52 (242) 865-9803,https://nytimes.com
"O'Conner, Jones and Thiel",2596 Corben Center,Galimuyod,Philippines,+63 (391) 770-8708,https://newyorker.com
O'Kon LLC,37 Autumn Leaf Avenue,Bantuanon,Philippines,+63 (432) 828-2939,https://163.com
Leannon-Tremblay,45 Gateway Park,Boro Utara,Indonesia,+62 (415) 583-5252,https://tumblr.com
Price-Gislason,84257 Leroy Terrace,Płock,Poland,+48 (433) 148-2610,https://ibm.com
Mante-McGlynn,9540 Loeprich Avenue,Chigasaki,Japan,+81 (475) 714-7856,http://pinterest.com
Cronin-Jakubowski,86 Porter Street,Limulan,Philippines,+63 (135) 886-2209,https://storify.com
"Kshlerin, Kling and Bartoletti",893 Hermina Road,Erba,China,+86 (562) 135-9432,http://engadget.com
Wiegand-Bode,30 Stoughton Pass,Krasne,Ukraine,+380 (173) 429-4828,https://ustream.tv
Cassin LLC,850 Sachs Park,Velké Karlovice,Czech Republic,+420 (416) 967-9819,http://guardian.co.uk
"Tremblay, Daniel and Kerluke",257 Canary Junction,Bureya,Russia,+7 (315) 349-0539,http://toplist.cz
Lang LLC,12145 Sheridan Parkway,Janeng,Botswana,+267 (585) 321-0683,http://fc2.com
"Jenkins, Luettgen and Kris",3067 Mcbride Circle,Xinhua,China,+86 (867) 820-3325,https://zimbio.com
West Group,88 Mayer Plaza,Baganha,Portugal,+351 (909) 784-7974,http://furl.net
Dibbert and Sons,9 Hauk Place,Tulsa,United States,+1 (918) 819-6212,http://wiley.com
Marquardt-Boyer,7294 Ludington Road,Sępopol,Poland,+48 (331) 766-3681,https://barnesandnoble.com
Hagenes Inc,30 Cambridge Junction,Lajeosa do Mondego,Portugal,+351 (802) 403-5396,https://smugmug.com
Paucek-Pollich,96112 Merchant Circle,Tiflet,Morocco,+212 (430) 248-6085,https://ted.com
"Jaskolski, McDermott and Ullrich",48991 Rockefeller Point,Stary Sącz,Poland,+48 (287) 765-6755,http://microsoft.com
"Runolfsdottir, Prohaska and Willms",19 Continental Place,Krasnaya Poyma,Russia,+7 (803) 786-2029,https://mapquest.com
"Collins, King and Graham",87 Tennessee Point,Bahuang,China,+86 (725) 596-4798,http://discuz.net
"Bode, Littel and Greenholt",5609 Carioca Lane,Xinchong,China,+86 (588) 219-7238,http://hexun.com
"Bogisich, Rolfson and Ferry",98593 Oneill Circle,Rawson,Argentina,+54 (642) 476-2713,http://europa.eu
"Waters, Smith and McDermott",4 Arrowood Crossing,Palikir - National Government Center,Micronesia,+691 (598) 538-0211,http://independent.co.uk
